H1 CPF 01  gfz 2021 12 13 13  8472 tandemx   
H2 1003001  6202 36605    2021 12 13 12 59 42 2021 12 18 00 00 42   120 1 1  0 0 0
H9
10 0 59563   6462.000000  0   -2609775.004  -3707732.779   5175962.370
10 0 59563   6582.000000  0   -2372616.194  -3001607.914   5717925.527
10 0 59563   6702.000000  0   -2081245.961  -2247686.440   6159318.940
10 0 59563   6822.000000  0   -1740053.385  -1460059.555   6492417.588
10 0 59563   6942.000000  0   -1354541.800   -653309.705   6711400.203
10 0 59563   7062.000000  0    -931238.316    157762.409   6812443.416
10 0 59563   7182.000000  0    -477583.606    958408.052   6793783.696
10 0 59563   7302.000000  0      -1801.169   1734198.187   6655747.155
10 0 59563   7422.000000  0     487251.668   2471283.444   6400744.283
10 0 59563   7542.000000  0     980248.124   3156641.222   6033229.938
10 0 59563   7662.000000  0    1467568.635   3778307.098   5559630.636
10 0 59563   7782.000000  0    1939487.508   4325587.611   4988238.146
10 0 59563   7902.000000  0    2386367.264   4789250.318   4329070.398
10 0 59563   8022.000000  0    2798855.955   5161685.783   3593699.667
10 0 59563   8142.000000  0    3168082.900   5437039.256   2795053.787
10 0 59563   8262.000000  0    3485851.383   5611312.577   1947188.782
10 0 59563   8382.000000  0    3744819.721   5682425.358   1065035.541
10 0 59563   8502.000000  0    3938666.173   5650238.540    164131.198
10 0 59563   8622.000000  0    4062236.062   5516538.029   -739663.404
10 0 59563   8742.000000  0    4111665.375   5284978.890  -1630451.045
10 0 59563   8862.000000  0    4084478.825   4960993.020  -2492585.615
10 0 59563   8982.000000  0    3979658.861   4551661.676  -3310953.577
10 0 59563   9102.000000  0    3797684.043   4065556.243  -4071242.703
10 0 59563   9222.000000  0    3540537.457   3512552.773  -4760191.361
10 0 59563   9342.000000  0    3211685.865   2903625.598  -5365816.262
10 0 59563   9462.000000  0    2816028.806   2250623.927  -5877613.711
10 0 59563   9582.000000  0    2359820.874   1566037.856  -6286731.769
10 0 59563   9702.000000  0    1850568.473    862758.238  -6586111.560
10 0 59563   9822.000000  0    1296904.921    153836.253  -6770596.863
10 0 59563   9942.000000  0     708444.835   -547754.274  -6837015.115
10 0 59563  10062.000000  0      95618.261  -1229349.795  -6784225.353
10 0 59563  10182.000000  0    -530509.572  -1878819.092  -6613134.098
10 0 59563  10302.000000  0   -1158432.570  -2484773.272  -6326682.615
10 0 59563  10422.000000  0   -1776410.465  -3036762.779  -5929802.175
10 0 59563  10542.000000  0   -2372683.060  -3525456.079  -5429337.541
10 0 59563  10662.000000  0   -2935690.711  -3942799.241  -4833941.221
10 0 59563  10782.000000  0   -3454298.566  -4282153.993  -4153935.527
10 0 59563  10902.000000  0   -3918018.021  -4538409.369  -3401143.312
10 0 59563  11022.000000  0   -4317221.686  -4708065.501  -2588690.682
10 0 59563  11142.000000  0   -4643347.323  -4789286.833  -1730782.689
10 0 59563  11262.000000  0   -4889085.186  -4781922.863   -842455.904
10 0 59563  11382.000000  0   -5048543.760  -4687495.417     60687.816
10 0 59563  11502.000000  0   -5117389.587  -4509152.521    962761.463
10 0 59563  11622.000000  0   -5092956.494  -4251588.388   1847881.531
10 0 59563  11742.000000  0   -4974320.597  -3920931.185   2700457.233
10 0 59563  11862.000000  0   -4762339.863  -3524602.252   3505473.336
10 0 59563  11982.000000  0   -4459657.629  -3071150.887   4248761.126
10 0 59563  12102.000000  0   -4070669.134  -2570067.963   4917252.237
10 0 59563  12222.000000  0   -3601452.918  -2031584.238   5499207.898
10 0 59563  12342.000000  0   -3059670.940  -1466459.600   5984422.325
10 0 59563  12462.000000  0   -2454438.043   -885766.094   6364398.897
10 0 59563  12582.000000  0   -1796162.466   -300668.186   6632494.048
10 0 59563  12702.000000  0   -1096361.774    277792.694   6784025.883
10 0 59563  12822.000000  0    -367460.038    838904.651   6816350.072
10 0 59563  12942.000000  0     377432.538   1372482.930   6728903.397
10 0 59563  13062.000000  0    1124754.833   1869054.686   6523213.252
10 0 59563  13182.000000  0    1860741.140   2320027.359   6202871.961
10 0 59563  13302.000000  0    2571673.839   2717837.496   5773478.003
10 0 59563  13422.000000  0    3244140.095   3056079.659   5242544.927
10 0 59563  13542.000000  0    3865288.455   3329612.736   4619375.493
10 0 59563  13662.000000  0    4423077.133   3534640.473   3914903.219
10 0 59563  13782.000000  0    4906514.242   3668766.129   3141506.968
10 0 59563  13902.000000  0    5305882.734   3731019.289   2312792.203
10 0 59563  14022.000000  0    5612940.961   3721851.569   1443349.494
10 0 59563  14142.000000  0    5821097.490   3643104.228    548492.512
10 0 59563  14262.000000  0    5925554.042   3497946.352   -356019.897
10 0 59563  14382.000000  0    5923412.314   3290785.315  -1254270.073
10 0 59563  14502.000000  0    5813742.708   3027152.157  -2130470.225
10 0 59563  14622.000000  0    5597612.587   2713565.472  -2969246.634
10 0 59563  14742.000000  0    5278075.252   2357377.355  -3755913.879
10 0 59563  14862.000000  0    4860120.467   1966604.827  -4476733.952
10 0 59563  14982.000000  0    4350585.378   1549750.943  -5119154.674
10 0 59563  15102.000000  0    3758031.883   1115621.352  -5672020.726
10 0 59563  15222.000000  0    3092594.145    673140.846  -6125758.364
10 0 59563  15342.000000  0    2365797.942    231172.697  -6472530.455
10 0 59563  15462.000000  0    1590357.559   -201654.822  -6706359.723
10 0 59563  15582.000000  0     779954.470   -617112.577  -6823222.262
10 0 59563  15702.000000  0     -51002.212  -1007523.147  -6821109.623
10 0 59563  15822.000000  0    -887626.355  -1365898.311  -6700057.809
10 0 59563  15942.000000  0   -1714814.551  -1686060.673  -6462147.454
10 0 59563  16062.000000  0   -2517512.957  -1962748.402  -6111471.982
10 0 59563  16182.000000  0   -3280985.063  -2191700.520  -5654073.979
10 0 59563  16302.000000  0   -3991078.965  -2369723.170  -5097852.944
10 0 59563  16422.000000  0   -4634491.622  -2494735.137  -4452440.666
10 0 59563  16542.000000  0   -5199022.204  -2565790.865  -3729045.080
10 0 59563  16662.000000  0   -5673810.802  -2583080.802  -2940265.020
10 0 59563  16782.000000  0   -6049557.043  -2547908.068  -2099876.660
10 0 59563  16902.000000  0   -6318712.379  -2462641.978  -1222595.398
10 0 59563  17022.000000  0   -6475641.590  -2330648.963   -323816.790
10 0 59563  17142.000000  0   -6516748.069  -2156202.082    580658.420
10 0 59563  17262.000000  0   -6440559.930  -1944371.061   1474909.660
10 0 59563  17382.000000  0   -6247772.890  -1700895.635   2343186.446
10 0 59563  17502.000000  0   -5941248.165  -1432045.737   3170194.643
10 0 59563  17622.000000  0   -5525968.093  -1144471.688   3941373.381
10 0 59563  17742.000000  0   -5008947.400   -845048.217   4643157.917
10 0 59563  17862.000000  0   -4399104.430   -540716.956   5263218.539
10 0 59563  17982.000000  0   -3707099.276   -238331.485   5790675.628
10 0 59563  18102.000000  0   -2945138.645     55492.725   6216288.061
10 0 59563  18222.000000  0   -2126752.283    334519.376   6532609.689
10 0 59563  18342.000000  0   -1266547.034    593019.542   6734113.482
10 0 59563  18462.000000  0    -379943.012    825886.731   6817282.185
10 0 59563  18582.000000  0     517103.140   1028736.123   6780665.163
10 0 59563  18702.000000  0    1408384.385   1197986.522   6624902.068
10 0 59563  18822.000000  0    2277735.171   1330923.998   6352712.387
10 0 59563  18942.000000  0    3109323.949   1425745.437   5968851.230
10 0 59563  19062.000000  0    3887943.512   1481581.860   5480031.694
10 0 59563  19182.000000  0    4599292.008   1498500.921   4894812.444
10 0 59563  19302.000000  0    5230240.723   1477489.440   4223455.488
10 0 59563  19422.000000  0    5769086.819   1420415.419   3477751.312
10 0 59563  19542.000000  0    6205779.682   1329970.548   2670811.756
10 0 59563  19662.000000  0    6532117.329   1209592.850   1816839.371
10 0 59563  19782.000000  0    6741909.780   1063373.352    930873.436
10 0 59563  19902.000000  0    6831102.450    895947.766     28518.386
10 0 59563  20022.000000  0    6797858.287    712376.064   -874339.374
10 0 59563  20142.000000  0    6642593.552    518012.919  -1761821.022
10 0 59563  20262.000000  0    6367967.908    318372.184  -2618342.016
10 0 59563  20382.000000  0    5978830.832    118989.457  -3428891.510
10 0 59563  20502.000000  0    5482125.116    -74713.726  -4179298.742
10 0 59563  20622.000000  0    4886749.466   -257560.728  -4856480.481
10 0 59563  20742.000000  0    4203385.749   -424742.159  -5448663.288
10 0 59563  20862.000000  0    3444297.505   -571927.560  -5945579.996
10 0 59563  20982.000000  0    2623101.991   -695364.861  -6338638.449
10 0 59563  21102.000000  0    1754520.575   -791964.268  -6621058.240
10 0 59563  21222.000000  0     854115.086   -859366.329  -6787976.208
10 0 59563  21342.000000  0     -61988.067   -895993.252  -6836522.146
10 0 59563  21462.000000  0    -977381.316   -901081.564  -6765861.824
10 0 59563  21582.000000  0   -1875662.505   -874697.166  -6577210.160
10 0 59563  21702.000000  0   -2740722.594   -817731.547  -6273812.041
10 0 59563  21822.000000  0   -3557027.482   -731879.943  -5860891.534
10 0 59563  21942.000000  0   -4309893.563   -619601.639  -5345573.053
10 0 59563  22062.000000  0   -4985753.561   -484062.410  -4736769.408
10 0 59563  22182.000000  0   -5572405.139   -329060.609  -4045039.170
10 0 59563  22302.000000  0   -6059240.421   -158937.957  -3282414.633
10 0 59563  22422.000000  0   -6437449.401     21524.375  -2462199.623
10 0 59563  22542.000000  0   -6700192.528    207221.118  -1598742.097
10 0 59563  22662.000000  0   -6842738.317    392848.574   -707183.322
10 0 59563  22782.000000  0   -6862559.823    573035.902    196813.192
10 0 59563  22902.000000  0   -6759385.670    742479.859   1097343.320
99
